ORBCOMM FM33            
1 25983U 99065D   25089.48319549  .00002305  00000+0  77333-3 0  9998
2 25983  45.0299  13.0837 0009314  19.7604 340.3605 14.39750030324725
ORBCOMM FM36            
1 25984U 99065E   25089.20554290  .00002470  00000+0  85813-3 0  9998
2 25984  45.0374 105.1214 0005491 272.3748  87.6472 14.37836073323058
ORBCOMM FM35            
1 25985U 99065F   25089.33802550  .00001817  00000+0  65689-3 0  9991
2 25985  45.0377 108.9112 0004478 329.7874  30.2716 14.36844531323446
ORBCOMM FM34            
1 25986U 99065G   25089.30578690  .00001835  00000+0  66214-3 0  9999
2 25986  45.0370 109.5549 0005908 296.2681  63.7560 14.36887369323550
ORBCOMM FM38            
1 33060U 08031A   25089.35036814  .00003879  00000+0  52400-3 0  9998
2 33060  48.4409 330.8493 0004891  59.3215 300.8182 14.80865042903068
ORBCOMM FM41            
1 33061U 08031B   25089.43127216  .00003627  00000+0  49638-3 0  9995
2 33061  48.4447 337.9757 0004152  42.8416 127.3030 14.80474597902561
ORBCOMM FM29            
1 33062U 08031C   25089.07760918  .00003940  00000+0  53579-3 0  9995
2 33062  48.4400 347.5587 0005933  40.7712 100.4745 14.80545923902425
ORBCOMM FM39            
1 33063U 08031D   25089.47860653  .00003716  00000+0  52358-3 0  9992
2 33063  48.4416   9.0718 0007035  14.7259 345.3859 14.79156828902146
